[
    {
        "Altitude(m)": 610399.5764351847,
        "Argument of Periapsis(deg)": 0.0,
        "Eccentricity": 0.0,
        "Inclination(deg)": 60.0,
        "Latitude(deg)": 52.111466253725325,
        "Longitude(deg)": 107.58431779884589,
        "Mean Anomaly(deg)": 65.45450000000001,
        "RAAN(deg)": 160.0,
        "Satellite Name": "Test1 708",
        "Satellite Number": 708,
        "Semi-Major Axis(m)": 6980739.136638005,
        "Time(s)": 0
    },
    {
        "Altitude(m)": 610481.7273164495,
        "Argument of Periapsis(deg)": 0.00010418945913296404,
        "Eccentricity": 0.0,
        "Inclination(deg)": 60.0,
        "Latitude(deg)": 52.47106835764768,
        "Longitude(deg)": 108.36645649669506,
        "Mean Anomaly(deg)": 66.07460614546181,
        "RAAN(deg)": 159.99957995086024,
        "Satellite Name": "Test1 708",
        "Satellite Number": 708,
        "Semi-Major Axis(m)": 6980739.136638005,
        "Time(s)": 10
    }
]